{
  "type": "FeatureCollection",
  "features": [
    {
      "type": "Feature",
      "properties": {
        "norad_id": 41003,
        "name": "FENGYUN 1C DEB",
        "group": "fengyun-1c-debris",
        "lat": 76.97449206537951,
        "lon": -139.12800251141152,
        "alt_km": 685.3794376276901,
        "timestamp": "2025-12-10T23:33:13.106595+00:00",
        "meta_object_name": "FENGYUN 1C DEB",
        "meta_object_id": "1999-025EXH",
        "meta_epoch": "2025-12-04T00:49:42.134016",
        "meta_mean_motion": 14.71928212,
        "meta_eccentricity": 0.0073367,
        "meta_inclination": 98.9659,
        "meta_ra_of_asc_node": 256.2527,
        "meta_arg_of_pericenter": 319.547,
        "meta_mean_anomaly": 40.0293,
        "meta_ephemeris_type": 0,
        "meta_classification_type": "U",
        "meta_norad_cat_id": 41003,
        "meta_element_set_no": 999,
        "meta_rev_at_epoch": 52292,
        "meta_bstar": 0.0095392716,
        "meta_mean_motion_dot": 0.00062834,
        "meta_mean_motion_ddot": 0,
        "tle_line1": "1 41003U 99025EXH 25338.03451544  .00062834  00000+0  95393-2 0  9993",
        "tle_line2": "2 41003  98.9659 256.2527 0073367 319.5470  40.0293 14.71928212522925"
      },
      "geometry": {
        "type": "Point",
        "coordinates": [
          -139.12800251141152,
          76.97449206537951
        ]
      }
    },
    {
      "type": "Feature",
      "properties": {
        "norad_id": 41006,
        "name": "FENGYUN 1C DEB",
        "group": "fengyun-1c-debris",
        "lat": 30.717757061514863,
        "lon": 42.709710884485744,
        "alt_km": 1041.1713850019669,
        "timestamp": "2025-12-10T23:33:13.106604+00:00",
        "meta_object_name": "FENGYUN 1C DEB",
        "meta_object_id": "1999-025EXL",
        "meta_epoch": "2025-12-08T08:27:10.950912",
        "meta_mean_motion": 13.85315126,
        "meta_eccentricity": 0.01896295,
        "meta_inclination": 102.3663,
        "meta_ra_of_asc_node": 211.7628,
        "meta_arg_of_pericenter": 18.9212,
        "meta_mean_anomaly": 341.8856,
        "meta_ephemeris_type": 0,
        "meta_classification_type": "U",
        "meta_norad_cat_id": 41006,
        "meta_element_set_no": 999,
        "meta_rev_at_epoch": 57428,
        "meta_bstar": 0.0041566845,
        "meta_mean_motion_dot": 5.374e-05,
        "meta_mean_motion_ddot": 0,
        "tle_line1": "1 41006U 99025EXL 25342.35221008  .00005374  00000+0  41567-2 0  9996",
        "tle_line2": "2 41006 102.3663 211.7628 0189629  18.9212 341.8856 13.85315126574285"
      },
      "geometry": {
        "type": "Point",
        "coordinates": [
          42.709710884485744,
          30.717757061514863
        ]
      }
    },
    {
      "type": "Feature",
      "properties": {
        "norad_id": 41007,
        "name": "FENGYUN 1C DEB",
        "group": "fengyun-1c-debris",
        "lat": -19.48947803048655,
        "lon": 15.213387079906669,
        "alt_km": 900.3490920043641,
        "timestamp": "2025-12-10T23:33:13.106613+00:00",
        "meta_object_name": "FENGYUN 1C DEB",
        "meta_object_id": "1999-025EXM",
        "meta_epoch": "2025-11-29T06:55:22.773792",
        "meta_mean_motion": 13.85678237,
        "meta_eccentricity": 0.01723955,
        "meta_inclination": 99.9731,
        "meta_ra_of_asc_node": 359.205,
        "meta_arg_of_pericenter": 79.2855,
        "meta_mean_anomaly": 282.7657,
        "meta_ephemeris_type": 0,
        "meta_classification_type": "U",
        "meta_norad_cat_id": 41007,
        "meta_element_set_no": 999,
        "meta_rev_at_epoch": 57212,
        "meta_bstar": 0.0017167305,
        "meta_mean_motion_dot": 2.158e-05,
        "meta_mean_motion_ddot": 0,
        "tle_line1": "1 41007U 99025EXM 25333.28845803  .00002158  00000+0  17167-2 0  9990",
        "tle_line2": "2 41007  99.9731 359.2050 0172395  79.2855 282.7657 13.85678237572123"
      },
      "geometry": {
        "type": "Point",
        "coordinates": [
          15.213387079906669,
          -19.48947803048655
        ]
      }
    },
    {
      "type": "Feature",
      "properties": {
        "norad_id": 41011,
        "name": "FENGYUN 1C DEB",
        "group": "fengyun-1c-debris",
        "lat": 50.9506738832925,
        "lon": -138.65925633657622,
        "alt_km": 865.4335216978852,
        "timestamp": "2025-12-10T23:33:13.106622+00:00",
        "meta_object_name": "FENGYUN 1C DEB",
        "meta_object_id": "1999-025EXR",
        "meta_epoch": "2025-12-10T09:39:46.698048",
        "meta_mean_motion": 14.42876971,
        "meta_eccentricity": 0.03102975,
        "meta_inclination": 99.1691,
        "meta_ra_of_asc_node": 29.2328,
        "meta_arg_of_pericenter": 5.0708,
        "meta_mean_anomaly": 355.3501,
        "meta_ephemeris_type": 0,
        "meta_classification_type": "U",
        "meta_norad_cat_id": 41011,
        "meta_element_set_no": 999,
        "meta_rev_at_epoch": 57123,
        "meta_bstar": 0.00082781631,
        "meta_mean_motion_dot": 4.901e-05,
        "meta_mean_motion_ddot": 0,
        "tle_line1": "1 41011U 99025EXR 25344.40262382  .00004901  00000+0  82782-3 0  9990",
        "tle_line2": "2 41011  99.1691  29.2328 0310297   5.0708 355.3501 14.42876971571231"
      },
      "geometry": {
        "type": "Point",
        "coordinates": [
          -138.65925633657622,
          50.9506738832925
        ]
      }
    },
    {
      "type": "Feature",
      "properties": {
        "norad_id": 41018,
        "name": "FENGYUN 1C DEB",
        "group": "fengyun-1c-debris",
        "lat": -56.081546640285204,
        "lon": -55.526316935333746,
        "alt_km": 1296.5863775431799,
        "timestamp": "2025-12-10T23:33:13.106631+00:00",
        "meta_object_name": "FENGYUN 1C DEB",
        "meta_object_id": "1999-025EXY",
        "meta_epoch": "2025-12-06T02:39:35.618688",
        "meta_mean_motion": 13.52334153,
        "meta_eccentricity": 0.0303705,
        "meta_inclination": 99.9355,
        "meta_ra_of_asc_node": 284.4824,
        "meta_arg_of_pericenter": 135.2291,
        "meta_mean_anomaly": 227.3789,
        "meta_ephemeris_type": 0,
        "meta_classification_type": "U",
        "meta_norad_cat_id": 41018,
        "meta_element_set_no": 999,
        "meta_rev_at_epoch": 88085,
        "meta_bstar": 0.0022581,
        "meta_mean_motion_dot": 1.949e-05,
        "meta_mean_motion_ddot": 0,
        "tle_line1": "1 41018U 99025EXY 25340.11082892  .00001949  00000+0  22581-2 0  9996",
        "tle_line2": "2 41018  99.9355 284.4824 0303705 135.2291 227.3789 13.52334153880856"
      },
      "geometry": {
        "type": "Point",
        "coordinates": [
          -55.526316935333746,
          -56.081546640285204
        ]
      }
    },
    {
      "type": "Feature",
      "properties": {
        "norad_id": 41822,
        "name": "FENGYUN 1C DEB",
        "group": "fengyun-1c-debris",
        "lat": -64.38986738026777,
        "lon": -147.50149329028451,
        "alt_km": 779.2294054740623,
        "timestamp": "2025-12-10T23:33:13.106641+00:00",
        "meta_object_name": "FENGYUN 1C DEB",
        "meta_object_id": "1999-025EXZ",
        "meta_epoch": "2025-12-07T15:11:10.613472",
        "meta_mean_motion": 14.24742013,
        "meta_eccentricity": 0.0055132,
        "meta_inclination": 98.7319,
        "meta_ra_of_asc_node": 47.8699,
        "meta_arg_of_pericenter": 235.1055,
        "meta_mean_anomaly": 124.4935,
        "meta_ephemeris_type": 0,
        "meta_classification_type": "U",
        "meta_norad_cat_id": 41822,
        "meta_element_set_no": 999,
        "meta_rev_at_epoch": 47300,
        "meta_bstar": 0.0027484283,
        "meta_mean_motion_dot": 6.463e-05,
        "meta_mean_motion_ddot": 0,
        "tle_line1": "1 41822U 99025EXZ 25341.63276173  .00006463  00000+0  27484-2 0  9997",
        "tle_line2": "2 41822  98.7319  47.8699 0055132 235.1055 124.4935 14.24742013473006"
      },
      "geometry": {
        "type": "Point",
        "coordinates": [
          -147.50149329028451,
          -64.38986738026777
        ]
      }
    },
    {
      "type": "Feature",
      "properties": {
        "norad_id": 41823,
        "name": "FENGYUN 1C DEB",
        "group": "fengyun-1c-debris",
        "lat": -34.374766111535976,
        "lon": 54.348616255812686,
        "alt_km": 820.8547027889535,
        "timestamp": "2025-12-10T23:33:13.106650+00:00",
        "meta_object_name": "FENGYUN 1C DEB",
        "meta_object_id": "1999-025EYA",
        "meta_epoch": "2025-12-10T15:16:58.030464",
        "meta_mean_motion": 14.2349562,
        "meta_eccentricity": 0.00545682,
        "meta_inclination": 98.7199,
        "meta_ra_of_asc_node": 47.9807,
        "meta_arg_of_pericenter": 234.2846,
        "meta_mean_anomaly": 125.3249,
        "meta_ephemeris_type": 0,
        "meta_classification_type": "U",
        "meta_norad_cat_id": 41823,
        "meta_element_set_no": 999,
        "meta_rev_at_epoch": 47328,
        "meta_bstar": 0.0022567658,
        "meta_mean_motion_dot": 5.169e-05,
        "meta_mean_motion_ddot": 0,
        "tle_line1": "1 41823U 99025EYA 25344.63678276  .00005169  00000+0  22568-2 0  9991",
        "tle_line2": "2 41823  98.7199  47.9807 0054568 234.2846 125.3249 14.23495620473281"
      },
      "geometry": {
        "type": "Point",
        "coordinates": [
          54.348616255812686,
          -34.374766111535976
        ]
      }
    }
  ]
}